{
  "type": "FeatureCollection",
  "features": [
    {
      "type": "Feature",
      "properties": {
        "norad_id": 63632,
        "name": "SHENZHOU-20 (SZ-20)",
        "group": "stations",
        "lat": 26.407599911743915,
        "lon": -141.91185623573503,
        "alt_km": 394.16566891422644,
        "timestamp": "2025-12-03T13:52:08.363938+00:00",
        "meta_object_name": "SHENZHOU-20 (SZ-20)",
        "meta_object_id": "2025-082A",
        "meta_epoch": "2025-12-03T08:40:01.753824",
        "meta_mean_motion": 15.58580261,
        "meta_eccentricity": 0.00100709,
        "meta_inclination": 41.4677,
        "meta_ra_of_asc_node": 73.6192,
        "meta_arg_of_pericenter": 319.5464,
        "meta_mean_anomaly": 40.4624,
        "meta_ephemeris_type": 0,
        "meta_classification_type": "U",
        "meta_norad_cat_id": 63632,
        "meta_element_set_no": 999,
        "meta_rev_at_epoch": 25530,
        "meta_bstar": 0.00034171532,
        "meta_mean_motion_dot": 0.00026743,
        "meta_mean_motion_ddot": 0,
        "tle_line1": "1 63632U 25082A   25337.36113141  .00026743  00000+0  34172-3 0  9998",
        "tle_line2": "2 63632  41.4677  73.6192 0010070 319.5464  40.4624 15.58580261255305"
      },
      "geometry": {
        "type": "Point",
        "coordinates": [
          -141.91185623573503,
          26.407599911743915
        ]
      }
    },
    {
      "type": "Feature",
      "properties": {
        "norad_id": 64751,
        "name": "PROGRESS-MS 31",
        "group": "stations",
        "lat": 8.81591300064197,
        "lon": -165.10546703652201,
        "alt_km": 420.79133821897994,
        "timestamp": "2025-12-03T13:52:08.363949+00:00",
        "meta_object_name": "PROGRESS-MS 31",
        "meta_object_id": "2025-146A",
        "meta_epoch": "2025-12-03T01:26:08.635488",
        "meta_mean_motion": 15.49262423,
        "meta_eccentricity": 0.00036204,
        "meta_inclination": 51.6309,
        "meta_ra_of_asc_node": 190.4017,
        "meta_arg_of_pericenter": 198.708,
        "meta_mean_anomaly": 161.3776,
        "meta_ephemeris_type": 0,
        "meta_classification_type": "U",
        "meta_norad_cat_id": 64751,
        "meta_element_set_no": 999,
        "meta_rev_at_epoch": 675,
        "meta_bstar": 0.00021764811,
        "meta_mean_motion_dot": 0.0001167,
        "meta_mean_motion_ddot": 0,
        "tle_line1": "1 64751U 25146A   25337.05982217  .00011670  00000+0  21765-3 0  9993",
        "tle_line2": "2 64751  51.6309 190.4017 0003620 198.7080 161.3776 15.49262423  6752"
      },
      "geometry": {
        "type": "Point",
        "coordinates": [
          -165.10546703652201,
          8.81591300064197
        ]
      }
    },
    {
      "type": "Feature",
      "properties": {
        "norad_id": 64786,
        "name": "TIANZHOU-9",
        "group": "stations",
        "lat": 26.407599165047955,
        "lon": -141.91185496254454,
        "alt_km": 394.16566904476895,
        "timestamp": "2025-12-03T13:52:08.363959+00:00",
        "meta_object_name": "TIANZHOU-9",
        "meta_object_id": "2025-149A",
        "meta_epoch": "2025-12-03T08:40:01.753824",
        "meta_mean_motion": 15.58580261,
        "meta_eccentricity": 0.00100709,
        "meta_inclination": 41.4677,
        "meta_ra_of_asc_node": 73.6192,
        "meta_arg_of_pericenter": 319.5464,
        "meta_mean_anomaly": 40.4624,
        "meta_ephemeris_type": 0,
        "meta_classification_type": "U",
        "meta_norad_cat_id": 64786,
        "meta_element_set_no": 999,
        "meta_rev_at_epoch": 25530,
        "meta_bstar": 0.00034171532,
        "meta_mean_motion_dot": 0.00026743,
        "meta_mean_motion_ddot": 0,
        "tle_line1": "1 64786U 25149A   25337.36113141  .00026743  00000+0  34172-3 0  9993",
        "tle_line2": "2 64786  41.4677  73.6192 0010070 319.5464  40.4624 15.58580261255306"
      },
      "geometry": {
        "type": "Point",
        "coordinates": [
          -141.91185496254454,
          26.407599165047955
        ]
      }
    },
    {
      "type": "Feature",
      "properties": {
        "norad_id": 65077,
        "name": "CREW DRAGON 11",
        "group": "stations",
        "lat": 8.815914005346125,
        "lon": -165.10546621629126,
        "alt_km": 420.79133808114966,
        "timestamp": "2025-12-03T13:52:08.363969+00:00",
        "meta_object_name": "CREW DRAGON 11",
        "meta_object_id": "2025-166A",
        "meta_epoch": "2025-12-03T01:26:08.635488",
        "meta_mean_motion": 15.49262423,
        "meta_eccentricity": 0.00036204,
        "meta_inclination": 51.6309,
        "meta_ra_of_asc_node": 190.4017,
        "meta_arg_of_pericenter": 198.708,
        "meta_mean_anomaly": 161.3776,
        "meta_ephemeris_type": 0,
        "meta_classification_type": "U",
        "meta_norad_cat_id": 65077,
        "meta_element_set_no": 999,
        "meta_rev_at_epoch": 214,
        "meta_bstar": 0.00021764811,
        "meta_mean_motion_dot": 0.0001167,
        "meta_mean_motion_ddot": 0,
        "tle_line1": "1 65077U 25166A   25337.05982217  .00011670  00000+0  21765-3 0  9997",
        "tle_line2": "2 65077  51.6309 190.4017 0003620 198.7080 161.3776 15.49262423  2143"
      },
      "geometry": {
        "type": "Point",
        "coordinates": [
          -165.10546621629126,
          8.815914005346125
        ]
      }
    },
    {
      "type": "Feature",
      "properties": {
        "norad_id": 65304,
        "name": "DRAGON CRS-33",
        "group": "stations",
        "lat": 8.815914557934718,
        "lon": -165.10546576516322,
        "alt_km": 420.79133800533964,
        "timestamp": "2025-12-03T13:52:08.363980+00:00",
        "meta_object_name": "DRAGON CRS-33",
        "meta_object_id": "2025-186A",
        "meta_epoch": "2025-12-03T01:26:08.635488",
        "meta_mean_motion": 15.49262423,
        "meta_eccentricity": 0.00036204,
        "meta_inclination": 51.6309,
        "meta_ra_of_asc_node": 190.4017,
        "meta_arg_of_pericenter": 198.708,
        "meta_mean_anomaly": 161.3776,
        "meta_ephemeris_type": 0,
        "meta_classification_type": "U",
        "meta_norad_cat_id": 65304,
        "meta_element_set_no": 999,
        "meta_rev_at_epoch": 11,
        "meta_bstar": 0.00021764811,
        "meta_mean_motion_dot": 0.0001167,
        "meta_mean_motion_ddot": 0,
        "tle_line1": "1 65304U 25186A   25337.05982217  .00011670  00000+0  21765-3 0  9992",
        "tle_line2": "2 65304  51.6309 190.4017 0003620 198.7080 161.3776 15.49262423   111"
      },
      "geometry": {
        "type": "Point",
        "coordinates": [
          -165.10546576516322,
          8.815914557934718
        ]
      }
    },
    {
      "type": "Feature",
      "properties": {
        "norad_id": 65586,
        "name": "PROGRESS-MS 32",
        "group": "stations",
        "lat": 8.815915060286772,
        "lon": -165.10546535504784,
        "alt_km": 420.7913379364245,
        "timestamp": "2025-12-03T13:52:08.363990+00:00",
        "meta_object_name": "PROGRESS-MS 32",
        "meta_object_id": "2025-204A",
        "meta_epoch": "2025-12-03T01:26:08.635488",
        "meta_mean_motion": 15.49262423,
        "meta_eccentricity": 0.00036204,
        "meta_inclination": 51.6309,
        "meta_ra_of_asc_node": 190.4017,
        "meta_arg_of_pericenter": 198.708,
        "meta_mean_anomaly": 161.3776,
        "meta_ephemeris_type": 0,
        "meta_classification_type": "U",
        "meta_norad_cat_id": 65586,
        "meta_element_set_no": 999,
        "meta_rev_at_epoch": 27,
        "meta_bstar": 0.00021764811,
        "meta_mean_motion_dot": 0.0001167,
        "meta_mean_motion_ddot": 0,
        "tle_line1": "1 65586U 25204A   25337.05982217  .00011670  00000+0  21765-3 0  9995",
        "tle_line2": "2 65586  51.6309 190.4017 0003620 198.7080 161.3776 15.49262423   270"
      },
      "geometry": {
        "type": "Point",
        "coordinates": [
          -165.10546535504784,
          8.815915060286772
        ]
      }
    },
    {
      "type": "Feature",
      "properties": {
        "norad_id": 65616,
        "name": "CYGNUS NG-23",
        "group": "stations",
        "lat": 8.815915763580454,
        "lon": -165.10546478088568,
        "alt_km": 420.79133783994257,
        "timestamp": "2025-12-03T13:52:08.364004+00:00",
        "meta_object_name": "CYGNUS NG-23",
        "meta_object_id": "2025-208A",
        "meta_epoch": "2025-12-03T01:26:08.635488",
        "meta_mean_motion": 15.49262423,
        "meta_eccentricity": 0.00036204,
        "meta_inclination": 51.6309,
        "meta_ra_of_asc_node": 190.4017,
        "meta_arg_of_pericenter": 198.708,
        "meta_mean_anomaly": 161.3776,
        "meta_ephemeris_type": 0,
        "meta_classification_type": "U",
        "meta_norad_cat_id": 65616,
        "meta_element_set_no": 999,
        "meta_rev_at_epoch": 22,
        "meta_bstar": 0.00021764811,
        "meta_mean_motion_dot": 0.0001167,
        "meta_mean_motion_ddot": 0,
        "tle_line1": "1 65616U 25208A   25337.05982217  .00011670  00000+0  21765-3 0  9993",
        "tle_line2": "2 65616  51.6309 190.4017 0003620 198.7080 161.3776 15.49262423   229"
      },
      "geometry": {
        "type": "Point",
        "coordinates": [
          -165.10546478088568,
          8.815915763580454
        ]
      }
    }
  ]
}